{
    "links": {
        "self": "http://www.neowsapp.com/rest/v1/neo/3710224?api_key=iIulBulltgU6a56xZRHN4H3l9WmuAYTsLGpBGhQ2"
    },
    "id": "3710224",
    "neo_reference_id": "3710224",
    "name": "(2015 CQ13)",
    "designation": "2015 CQ13",
    "nasa_jpl_url": "http://ssd.jpl.nasa.gov/sbdb.cgi?sstr=3710224",
    "absolute_magnitude_h": 25.7,
    "estimated_diameter": {
        "kilometers": {
            "estimated_diameter_min": 0.0192555078,
            "estimated_diameter_max": 0.0430566244
        },
        "meters": {
            "estimated_diameter_min": 19.2555078188,
            "estimated_diameter_max": 43.0566244241
        },
        "miles": {
            "estimated_diameter_min": 0.0119648141,
            "estimated_diameter_max": 0.0267541378
        },
        "feet": {
            "estimated_diameter_min": 63.1742402722,
            "estimated_diameter_max": 141.2618956756
        }
    },
    "is_potentially_hazardous_asteroid": false,
    "close_approach_data": [
        {
            "close_approach_date": "2004-05-03",
            "close_approach_date_full": "2004-May-03 09:08",
            "epoch_date_close_approach": 1083575280000,
            "relative_velocity": {
                "kilometers_per_second": "22.0074799591",
                "kilometers_per_hour": "79226.9278528277",
                "miles_per_hour": "49228.5319205528"
            },
            "miss_distance": {
                "astronomical": "0.4993052376",
                "lunar": "194.2297374264",
                "kilometers": "74695000.024803912",
                "miles": "46413320.8011295056"
            },
            "orbiting_body": "Earth"
        },
        {
            "close_approach_date": "2015-02-18",
            "close_approach_date_full": "2015-Feb-18 08:31",
            "epoch_date_close_approach": 1424248260000,
            "relative_velocity": {
                "kilometers_per_second": "6.7359267776",
                "kilometers_per_hour": "24249.3363994944",
                "miles_per_hour": "15067.5946088969"
            },
            "miss_distance": {
                "astronomical": "0.0171369953",
                "lunar": "6.6662911717",
                "kilometers": "2563657.995080011",
                "miles": "1592983.2105297118"
            },
            "orbiting_body": "Earth"
        },
        {
            "close_approach_date": "2037-02-17",
            "close_approach_date_full": "2037-Feb-17 16:53",
            "epoch_date_close_approach": 2118502380000,
            "relative_velocity": {
                "kilometers_per_second": "14.939580694",
                "kilometers_per_hour": "53782.4904984418",
                "miles_per_hour": "33418.3480544345"
            },
            "miss_distance": {
                "astronomical": "0.0646963099",
                "lunar": "25.1668645511",
                "kilometers": "9678430.157899913",
                "miles": "6013897.6319802794"
            },
            "orbiting_body": "Mars"
        }
    ],
    "orbital_data": {
        "orbit_id": "6",
        "orbit_determination_date": "2017-04-06 08:35:40",
        "first_observation_date": "2015-02-13",
        "last_observation_date": "2015-02-24",
        "data_arc_in_days": 11,
        "observations_used": 40,
        "orbit_uncertainty": "7",
        "minimum_orbit_intersection": ".00596915",
        "jupiter_tisserand_invariant": "3.741",
        "epoch_osculation": "2459000.5",
        "eccentricity": ".487938411508676",
        "semi_major_axis": "1.945869256301329",
        "inclination": "2.374204400748836",
        "ascending_node_longitude": "344.6951639792003",
        "orbital_period": "991.4456499773366",
        "perihelion_distance": ".99640490237809",
        "perihelion_argument": "173.6427184123955",
        "aphelion_distance": "2.895333610224569",
        "perihelion_time": "2459061.789230847229",
        "mean_anomaly": "337.7455041479009",
        "mean_motion": ".3631061369911999",
        "equinox": "J2000",
        "orbit_class": {
            "orbit_class_type": "APO",
            "orbit_class_description": "Near-Earth asteroid orbits which cross the Earth’s orbit similar to that of 1862 Apollo",
            "orbit_class_range": "a (semi-major axis) > 1.0 AU; q (perihelion) < 1.017 AU"
        }
    },
    "is_sentry_object": false
}